305P/Skiff,e,11.6492,240.1172,147.2868,4.643975,0.0984848,0.69324946,232.4002,05/02.0/2021,2000,g 18.0,4.0
# From MPC 92278
306P/LINEAR,e,8.3111,341.3746,0.8383,3.122975,0.1785876,0.59330791,83.0568,05/02.0/2021,2000,g 19.0,4.0
# From MPC 92278
307P/LINEAR,e,4.4341,158.1517,222.1322,5.792980,0.0706889,0.67466716,164.2736,05/02.0/2021,2000,g 15.0,4.0
# From MPC109148
308P/Lagerkvist-Carsenty,e,4.8507,63.0848,333.5916,6.604356,0.0580709,0.36337040,127.0470,05/02.0/2021,2000,g 13.0,2.0
# From MPC 94284
309P/LINEAR,e,17.0233,10.1415,49.9576,4.371688,0.1078277,0.61766657,245.4049,05/02.0/2021,2000,g 15.0,4.0
# From MPC 98566
310P/Hill,e,13.1278,8.9248,31.8274,4.178379,0.1153964,0.42184285,255.4774,05/02.0/2021,2000,g 13.5,4.0
# From MPEC 2021-BE3
311P/PANSTARRS,e,4.9696,279.2266,144.5852,2.188865,0.3043515,0.11550666,62.8655,05/02.0/2021,2000,g 17.0,4.0
# From MPEC 2021-BE3
312P/NEAT,e,19.7684,144.6694,207.5447,3.466444,0.1527137,0.42783419,33.4407,05/02.0/2021,2000,g 16.0,4.0
# From MPEC 2021-BE3
313P/Gibbs,e,10.9829,105.9735,254.6846,3.162411,0.1752575,0.23498896,66.8693,05/02.0/2021,2000,g 15.0,4.0
# From MPC105243
314P/Montani,e,3.9800,267.6144,214.1380,7.269819,0.0502827,0.41602479,83.8212,05/02.0/2021,2000,g  9.5,4.0
# From MPC115888
315P/LONEOS,e,17.7640,68.9394,65.6953,4.939212,0.0897878,0.52153207,145.0113,05/02.0/2021,2000,g 11.0,4.0
# From MPC 92279
316P/LONEOS-Christensen,e,9.8484,246.6508,193.3686,4.360480,0.1082437,0.15758065,219.5373,05/02.0/2021,2000,g 13.5,4.0
# From MPEC 2020-C98
317P/WISE,e,11.9498,275.5111,334.8931,2.964881,0.1930604,0.57049443,42.0546,05/02.0/2021,2000,g 17.5,4.0
# From MPC102103
318P/McNaught-Hartley,e,17.8773,35.5923,313.1700,7.498156,0.0480034,0.67520767,96.7916,05/02.0/2021,2000,g  8.5,6.0
# From MPC 97499
319P/Catalina-McNaught,e,15.0949,111.3755,203.6521,3.567451,0.1462740,0.66661589,311.2287,05/02.0/2021,2000,g 15.0,4.0
# From MPC 96281
320P/McNaught,e,4.9089,295.9293,0.7733,3.093563,0.1811405,0.68571419,18.9947,05/02.0/2021,2000,g 20.5,4.0
# From MPC105243
321P/SOHO,e,20.0754,165.0247,172.7392,2.423389,0.2612579,0.98110185,0.0000,01/17.3065/2020,2000,g 20.0,4.0
# From MPC102103
322P/SOHO,e,11.4643,351.5007,56.8996,2.508008,0.2481480,0.97980995,0.0000,08/31.4401/2019,2000,g 19.0,4.0
# From MPEC 2016-Y36
323P/SOHO,e,5.3386,324.3753,353.0538,2.582279,0.2375195,0.98484280,0.0000,01/17.7624/2021,2000,g 20.0,4.0
# From MPC108598
324P/La Sagra,e,21.4050,270.6214,57.6778,3.097480,0.1807970,0.15460468,359.2819,05/02.0/2021,2000,g 13.0,4.0
# From MPC114609
325P/Yang-Gao,e,16.6950,257.5702,343.6895,3.523865,0.1489962,0.59354929,310.6601,05/02.0/2021,2000,g 14.0,4.0
# From MPC103849
326P/Hill,e,2.4708,99.8120,278.5907,4.063610,0.1203195,0.31767373,242.9497,05/02.0/2021,2000,g 13.5,4.0
# From MPC 97499
327P/Van Ness,e,36.2498,173.9812,185.0331,3.562291,0.1465919,0.56301217,288.3924,05/02.0/2021,2000,g 16.0,4.0
# From MPC109148
328P/LONEOS-Tucker,e,17.6721,341.6314,30.4852,4.194768,0.1147208,0.55207568,224.2616,05/02.0/2021,2000,g 14.5,4.0
# From MPC101101
329P/LINEAR-Catalina,e,21.6711,87.6768,343.5334,5.191622,0.0833200,0.67711126,164.9887,05/02.0/2021,2000,g 13.5,4.0
# From MPC105243
330P/Catalina,e,15.6945,293.0953,188.9653,6.629506,0.0577407,0.54835317,98.7166,05/02.0/2021,2000,g 12.0,4.0
# From MPEC 2021-BE3
331P/Gibbs,e,9.7385,216.7750,183.8910,3.004170,0.1892855,0.04091027,40.4452,05/02.0/2021,2000,g 12.0,4.0
# From MPEC 2016-K18
332P/Ikeya-Murakami,e,9.3799,3.7875,152.3437,3.089221,0.1815226,0.48947901,340.3186,05/02.0/2021,2000,g 18.0,4.0
# From MPEC 2016-EI8
332P-B/Ikeya-Murakami,e,9.3805,3.8028,152.3711,3.082329,0.1821317,0.48970701,359.9699,03/17.0/2016,2000,g 19.0,4.0
# From MPEC 2016-K18
332P-C/Ikeya-Murakami,e,9.3789,3.7880,152.3350,3.089187,0.1815256,0.48948447,340.3324,05/02.0/2021,2000,g 16.5,4.0
# From MPEC 2016-ED0
332P-D/Ikeya-Murakami,e,9.3761,3.7923,152.4393,3.081138,0.1822373,0.48977814,359.9486,03/17.0/2016,2000,g 19.0,4.0
# From MPEC 2016-ED0
332P-E/Ikeya-Murakami,e,9.3774,3.8228,152.2825,3.079877,0.1823493,0.48922008,359.9889,03/17.0/2016,2000,g 21.0,4.0
# From MPEC 2016-ED0
332P-F/Ikeya-Murakami,e,9.5293,3.4757,152.8203,3.163214,0.1751908,0.49918860,359.8501,03/17.0/2016,2000,g 21.0,4.0
# From MPEC 2016-ED0
332P-G/Ikeya-Murakami,e,9.2523,3.6955,154.4000,3.050519,0.1849880,0.49200362,359.9006,03/19.0/2016,2000,g 19.0,4.0
# From MPC100285
332P-H/Ikeya-Murakami,e,9.3794,3.7877,152.3357,3.089371,0.1815093,0.48951960,340.2691,05/02.0/2021,2000,g 19.0,4.0
# From MPEC 2016-ED0
332P-I/Ikeya-Murakami,e,9.3791,3.8048,152.3297,3.081767,0.1821815,0.48955490,359.9360,03/17.0/2016,2000,g 20.5,2.0
# From MPEC 2016-EI8
332P-J/Ikeya-Murakami,e,9.4296,3.6729,152.7712,3.115165,0.1792596,0.49429435,359.8613,03/17.0/2016,2000,g 20.5,2.0
# From MPEC 2020-L06
333P/LINEAR,e,131.9802,115.6255,26.0093,4.219071,0.1137310,0.73678249,211.3017,05/02.0/2021,2000,g 15.0,4.0
# From MPC115888
334P/NEAT,e,20.4365,90.6820,90.0587,6.838586,0.0551131,0.35178647,78.5317,05/02.0/2021,2000,g 10.5,4.0
# From MPC100285
335P/Gibbs,e,7.2934,330.8480,162.2625,3.578068,0.1456234,0.54579417,291.9843,05/02.0/2021,2000,g 17.0,4.0
# From MPC105244
336P/McNaught,e,17.8337,298.2304,308.7575,5.032256,0.0873092,0.44512533,135.2835,05/02.0/2021,2000,g 13.5,4.0
# From MPC115888
337P/WISE,e,15.3722,106.0696,160.9994,3.287217,0.1653718,0.49679862,289.7038,05/02.0/2021,2000,g 17.0,4.0
# From MPC104796
338P/McNaught,e,25.3788,9.7898,4.4013,3.897185,0.1281084,0.41143138,207.6660,05/02.0/2021,2000,g 12.0,4.0
# From MPC101101
339P/Gibbs,e,5.7340,172.7334,27.5168,3.696573,0.1386772,0.63558713,241.9709,05/02.0/2021,2000,g 17.0,4.0
# From MPC102957
340P/Boattini,e,2.0793,291.7214,35.8427,4.251222,0.1124432,0.28076670,182.5399,05/02.0/2021,2000,g 13.0,4.0
# From MPEC 2021-BE3
341P/Gibbs,e,3.7955,29.9811,312.1509,4.293485,0.1107871,0.41545572,199.2761,05/02.0/2021,2000,g 12.5,4.0
# From MPC101101
342P/SOHO,e,11.6668,27.8028,73.1811,3.043184,0.1856572,0.98279788,0.0000,10/19.2912/2021,2000,g  9.0,4.0
# From MPC109148
343P/NEAT-LONEOS,e,5.5844,257.2069,137.3759,5.460435,0.0772437,0.58419397,120.0852,05/02.0/2021,2000,g 14.0,4.0
# From MPC109148
344P/Read,e,3.4909,273.1745,140.3830,4.865744,0.0918291,0.42191353,150.8945,05/02.0/2021,2000,g 13.0,4.0
# From MPC109148
345P/LINEAR,e,2.7271,154.5051,196.3909,4.038827,0.1214286,0.22100168,212.3950,05/02.0/2021,2000,g 12.0,4.0
# From MPC110086
346P/Catalina,e,22.1868,102.4661,335.9802,4.475778,0.1040882,0.50237133,160.1439,05/02.0/2021,2000,g 14.0,4.0
# From MPC108599
347P/PANSTARRS,e,11.7494,261.0319,98.3314,3.606180,0.1439239,0.38572902,243.5496,05/02.0/2021,2000,g 15.0,4.0
# From MPEC 2020-SI8
348P/PANSTARRS,e,17.7406,312.9419,135.6195,3.150486,0.1762535,0.30669975,309.5185,05/02.0/2021,2000,g 14.0,4.0
# From MPC112394
349P/Lemmon,e,5.4909,331.7440,256.0455,3.573118,0.1459261,0.29901752,196.3503,05/02.0/2021,2000,g 14.0,4.0
# From MPC111775
350P/McNaught,e,7.3573,65.3397,140.2213,4.091831,0.1190769,0.09146820,146.9205,05/02.0/2021,2000,g 14.0,4.0
# From MPC105244
351P/Wiegert-PANSTARRS,e,12.7881,283.4487,352.6627,4.437522,0.1054371,0.29588022,209.9188,05/02.0/2021,2000,g 12.5,4.0
# From MPC110086
352P/Skiff,e,21.0090,28.0665,309.1886,6.637584,0.0576354,0.61822407,81.2352,05/02.0/2021,2000,g 11.5,4.0
# From MPEC 2020-AA5
353P/McNaught,e,28.4243,121.5617,230.3831,4.171274,0.1156914,0.47011772,141.9704,05/02.0/2021,2000,g 14.5,4.0
# From MPC105545
354P/LINEAR,e,5.2556,320.1290,132.9641,2.289600,0.2844884,0.12567334,105.1914,05/02.0/2021,2000,g 15.5,4.0
# From MPEC 2020-AA5
355P/LINEAR-NEAT,e,11.0391,51.4331,336.2519,3.471871,0.1523557,0.50715800,197.5963,05/02.0/2021,2000,g 15.5,2.0
# From MPEC 2021-F20
356P/WISE,e,9.6370,160.7937,225.9934,4.159779,0.1161713,0.35498118,143.0814,05/02.0/2021,2000,g 14.0,4.0
# From MPC114609
357P/Hill,e,6.3113,44.5710,1.3985,4.460721,0.1046156,0.43477113,111.8361,05/02.0/2021,2000,g 15.5,4.0
# From MPEC 2020-HN5
358P/PANSTARRS,e,11.0578,85.7083,299.7292,3.147737,0.1764844,0.23840326,197.0124,05/02.0/2021,2000,g 18.0,4.0
# From MPC110086
359P/LONEOS,e,10.2669,149.7560,200.1551,4.639623,0.0986234,0.32408417,133.0843,05/02.0/2021,2000,g 13.5,4.0
# From MPC108599
360P/WISE,e,24.1040,2.1902,354.1259,3.702301,0.1383555,0.49888257,186.9885,05/02.0/2021,2000,g 19.5,6.0
# From MPC114609
361P/Spacewatch,e,13.8919,203.2505,219.0602,4.938900,0.0897964,0.43802472,92.9220,05/02.0/2021,2000,g 12.0,4.0
# From MPEC 2017-V13
362P/,e,15.5567,192.5702,53.7010,3.968787,0.1246572,0.27949227,213.4937,05/02.0/2021,2000,g 12.9,2.0
# From MPC114609
363P/Lemmon,e,5.3921,146.9536,341.2690,3.547024,0.1475393,0.52720104,170.1045,05/02.0/2021,2000,g 17.5,4.0
# From MPEC 2021-F20
364P/PANSTARRS,e,12.1407,46.1929,212.0045,2.879229,0.2017389,0.72223190,210.3505,05/02.0/2021,2000,g 17.0,2.0
# From MPC111775
365P/PANSTARRS,e,9.8276,87.2758,66.3116,3.175969,0.1741364,0.57695768,204.5601,05/02.0/2021,2000,g 17.0,4.0
# From MPC114610
366P/Spacewatch,e,8.8590,70.7581,153.1443,3.495716,0.1507995,0.34829002,153.2563,05/02.0/2021,2000,g 15.0,4.0
# From MPC112395
367P/Catalina,e,8.4626,58.7203,172.9105,3.505650,0.1501589,0.28027228,157.0796,05/02.0/2021,2000,g 17.5,2.0
# From MPC114610
368P/NEAT,e,15.4816,257.9454,118.7898,5.527007,0.0758523,0.62638679,72.8478,05/02.0/2021,2000,g 14.0,4.0
# From MPC114610
369P/Hill,e,10.3137,47.2962,13.1835,4.384523,0.1073546,0.55440411,99.8249,05/02.0/2021,2000,g 15.0,4.0
# From MPEC 2021-F20
370P/NEAT,e,19.4044,55.1192,356.6846,6.435150,0.0603762,0.61457528,63.8454,05/02.0/2021,2000,g 13.0,4.0
# From MPC114610
371P/LINEAR-Skiff,e,17.3775,67.3029,308.4612,4.181123,0.1152829,0.47662648,108.3737,05/02.0/2021,2000,g 16.0,4.0
# From MPEC 2020-K19
372P/McNaught,e,9.5101,325.8161,27.2895,4.504313,0.1031006,0.15270767,95.1723,05/02.0/2021,2000,g 13.5,4.0
# From MPEC 2021-F20
373P/Rinner,e,13.7612,231.9480,221.1058,3.803783,0.1328558,0.39219061,100.2021,05/02.0/2021,2000,g 14.5,4.0
# From MPC114610
